[{"OBJECT_NAME":"ZORKIY-2M 1","OBJECT_ID":"2023-091M","EPOCH":"2026-03-02T20:12:03.005280","MEAN_MOTION":15.19376617,"ECCENTRICITY":0.0015077,"INCLINATION":97.5235,"RA_OF_ASC_NODE":121.1869,"ARG_OF_PERICENTER":124.978,"MEAN_ANOMALY":235.2872,"EPHEMERIS_TYPE":0,"CLASSIFICATION_TYPE":"U","NORAD_CAT_ID":57177,"ELEMENT_SET_NO":999,"REV_AT_EPOCH":14784,"BSTAR":0.00045199,"MEAN_MOTION_DOT":9.525e-5,"MEAN_MOTION_DDOT":0},{"OBJECT_NAME":"CUBESX-HSE 3 (RS42S)","OBJECT_ID":"2023-091N","EPOCH":"2026-03-02T21:16:05.428416","MEAN_MOTION":15.28350846,"ECCENTRICITY":0.001283,"INCLINATION":97.5226,"RA_OF_ASC_NODE":126.2886,"ARG_OF_PERICENTER":108.6839,"MEAN_ANOMALY":251.5794,"EPHEMERIS_TYPE":0,"CLASSIFICATION_TYPE":"U","NORAD_CAT_ID":57178,"ELEMENT_SET_NO":999,"REV_AT_EPOCH":14817,"BSTAR":0.00058426,"MEAN_MOTION_DOT":0.00016111,"MEAN_MOTION_DDOT":0},{"OBJECT_NAME":"MONITOR-3 (RS58S)","OBJECT_ID":"2023-091Q","EPOCH":"2026-03-02T21:23:44.651328","MEAN_MOTION":15.25529265,"ECCENTRICITY":0.0013756,"INCLINATION":97.522,"RA_OF_ASC_NODE":124.6681,"ARG_OF_PERICENTER":113.3015,"MEAN_ANOMALY":246.9672,"EPHEMERIS_TYPE":0,"CLASSIFICATION_TYPE":"U","NORAD_CAT_ID":57180,"ELEMENT_SET_NO":999,"REV_AT_EPOCH":14807,"BSTAR":0.00052472,"MEAN_MOTION_DOT":0.00013275,"MEAN_MOTION_DDOT":0},{"OBJECT_NAME":"MONITOR-4 (RS57S)","OBJECT_ID":"2023-091S","EPOCH":"2026-03-02T21:02:52.386144","MEAN_MOTION":15.25614079,"ECCENTRICITY":0.001371,"INCLINATION":97.5214,"RA_OF_ASC_NODE":124.6181,"ARG_OF_PERICENTER":113.7533,"MEAN_ANOMALY":246.5144,"EPHEMERIS_TYPE":0,"CLASSIFICATION_TYPE":"U","NORAD_CAT_ID":57182,"ELEMENT_SET_NO":999,"REV_AT_EPOCH":14807,"BSTAR":0.00053463,"MEAN_MOTION_DOT":0.00013562,"MEAN_MOTION_DDOT":0},{"OBJECT_NAME":"MONITOR-2 (RS39S)","OBJECT_ID":"2023-091U","EPOCH":"2026-03-02T21:11:29.827104","MEAN_MOTION":15.17812734,"ECCENTRICITY":0.0012892,"INCLINATION":97.522,"RA_OF_ASC_NODE":120.8613,"ARG_OF_PERICENTER":119.6739,"MEAN_ANOMALY":240.578,"EPHEMERIS_TYPE":0,"CLASSIFICATION_TYPE":"U","NORAD_CAT_ID":57184,"ELEMENT_SET_NO":999,"REV_AT_EPOCH":14782,"BSTAR":0.0003357,"MEAN_MOTION_DOT":6.736e-5,"MEAN_MOTION_DDOT":0},{"OBJECT_NAME":"SVYATOBOR 1 (RS60S)","OBJECT_ID":"2023-091X","EPOCH":"2026-03-02T20:59:47.435712","MEAN_MOTION":15.24631339,"ECCENTRICITY":0.0011254,"INCLINATION":97.5226,"RA_OF_ASC_NODE":125.1885,"ARG_OF_PERICENTER":106.0243,"MEAN_ANOMALY":254.2234,"EPHEMERIS_TYPE":0,"CLASSIFICATION_TYPE":"U","NORAD_CAT_ID":57187,"ELEMENT_SET_NO":999,"REV_AT_EPOCH":14810,"BSTAR":0.00047436,"MEAN_MOTION_DOT":0.00011662,"MEAN_MOTION_DDOT":0},{"OBJECT_NAME":"HORS 1","OBJECT_ID":"2023-091Y","EPOCH":"2026-03-02T20:47:45.705408","MEAN_MOTION":15.24703098,"ECCENTRICITY":0.0010764,"INCLINATION":97.5205,"RA_OF_ASC_NODE":124.9581,"ARG_OF_PERICENTER":106.1978,"MEAN_ANOMALY":254.0445,"EPHEMERIS_TYPE":0,"CLASSIFICATION_TYPE":"U","NORAD_CAT_ID":57188,"ELEMENT_SET_NO":999,"REV_AT_EPOCH":14810,"BSTAR":0.00050438,"MEAN_MOTION_DOT":0.00012431,"MEAN_MOTION_DDOT":0},{"OBJECT_NAME":"VIZARD-METEO (RS38S)","OBJECT_ID":"2023-091Z","EPOCH":"2026-03-02T20:13:09.413184","MEAN_MOTION":15.324414,"ECCENTRICITY":0.0009056,"INCLINATION":97.5216,"RA_OF_ASC_NODE":129.4201,"ARG_OF_PERICENTER":93.3547,"MEAN_ANOMALY":266.8731,"EPHEMERIS_TYPE":0,"CLASSIFICATION_TYPE":"U","NORAD_CAT_ID":57189,"ELEMENT_SET_NO":999,"REV_AT_EPOCH":14838,"BSTAR":0.0006484,"MEAN_MOTION_DOT":0.00020287,"MEAN_MOTION_DDOT":0},{"OBJECT_NAME":"NANOZOND 1 (RS49S)","OBJECT_ID":"2023-091AA","EPOCH":"2026-03-02T21:00:16.623360","MEAN_MOTION":15.71591194,"ECCENTRICITY":7.06e-5,"INCLINATION":97.5096,"RA_OF_ASC_NODE":141.5892,"ARG_OF_PERICENTER":75.7521,"MEAN_ANOMALY":284.382,"EPHEMERIS_TYPE":0,"CLASSIFICATION_TYPE":"U","NORAD_CAT_ID":57190,"ELEMENT_SET_NO":999,"REV_AT_EPOCH":14920,"BSTAR":0.0015378,"MEAN_MOTION_DOT":0.00201462,"MEAN_MOTION_DDOT":0},{"OBJECT_NAME":"SITRO-AIS 6 (CHIRKIN)","OBJECT_ID":"2023-091AC","EPOCH":"2026-03-02T21:17:13.783776","MEAN_MOTION":15.24279226,"ECCENTRICITY":0.0014164,"INCLINATION":97.5202,"RA_OF_ASC_NODE":124.5332,"ARG_OF_PERICENTER":116.6097,"MEAN_ANOMALY":243.6593,"EPHEMERIS_TYPE":0,"CLASSIFICATION_TYPE":"U","NORAD_CAT_ID":57192,"ELEMENT_SET_NO":999,"REV_AT_EPOCH":14808,"BSTAR":0.00036987,"MEAN_MOTION_DOT":8.988e-5,"MEAN_MOTION_DDOT":0},{"OBJECT_NAME":"SITRO-AIS 8 (ANOKHIN)","OBJECT_ID":"2023-091AD","EPOCH":"2026-03-02T20:34:00.488640","MEAN_MOTION":15.29079538,"ECCENTRICITY":0.0012573,"INCLINATION":97.5191,"RA_OF_ASC_NODE":126.074,"ARG_OF_PERICENTER":114.2853,"MEAN_ANOMALY":245.9701,"EPHEMERIS_TYPE":0,"CLASSIFICATION_TYPE":"U","NORAD_CAT_ID":57193,"ELEMENT_SET_NO":999,"REV_AT_EPOCH":14818,"BSTAR":0.00061916,"MEAN_MOTION_DOT":0.00017465,"MEAN_MOTION_DDOT":0},{"OBJECT_NAME":"SITRO-AIS 7 (FARTUSHNIY)","OBJECT_ID":"2023-091AE","EPOCH":"2026-03-02T20:53:23.021376","MEAN_MOTION":15.24039063,"ECCENTRICITY":0.0013943,"INCLINATION":97.5201,"RA_OF_ASC_NODE":124.3904,"ARG_OF_PERICENTER":117.4255,"MEAN_ANOMALY":242.8402,"EPHEMERIS_TYPE":0,"CLASSIFICATION_TYPE":"U","NORAD_CAT_ID":57194,"ELEMENT_SET_NO":999,"REV_AT_EPOCH":14807,"BSTAR":0.00031574,"MEAN_MOTION_DOT":7.605e-5,"MEAN_MOTION_DDOT":0},{"OBJECT_NAME":"AVION KALUGA 650","OBJECT_ID":"2023-091AF","EPOCH":"2026-03-02T19:52:35.849280","MEAN_MOTION":15.19098361,"ECCENTRICITY":0.0012102,"INCLINATION":97.5234,"RA_OF_ASC_NODE":121.8572,"ARG_OF_PERICENTER":118.4867,"MEAN_ANOMALY":241.7587,"EPHEMERIS_TYPE":0,"CLASSIFICATION_TYPE":"U","NORAD_CAT_ID":57195,"ELEMENT_SET_NO":999,"REV_AT_EPOCH":14787,"BSTAR":0.00037533,"MEAN_MOTION_DOT":7.824e-5,"MEAN_MOTION_DDOT":0},{"OBJECT_NAME":"HORS 2","OBJECT_ID":"2023-091AG","EPOCH":"2026-03-02T20:34:41.964096","MEAN_MOTION":15.29022564,"ECCENTRICITY":0.0009975,"INCLINATION":97.5217,"RA_OF_ASC_NODE":127.5999,"ARG_OF_PERICENTER":100.757,"MEAN_ANOMALY":259.4793,"EPHEMERIS_TYPE":0,"CLASSIFICATION_TYPE":"U","NORAD_CAT_ID":57196,"ELEMENT_SET_NO":999,"REV_AT_EPOCH":14826,"BSTAR":0.00059342,"MEAN_MOTION_DOT":0.0001669,"MEAN_MOTION_DDOT":0},{"OBJECT_NAME":"A-SEANSAT-PG1","OBJECT_ID":"2023-091AH","EPOCH":"2026-03-02T21:22:25.514976","MEAN_MOTION":15.33084988,"ECCENTRICITY":0.00091,"INCLINATION":97.5207,"RA_OF_ASC_NODE":129.4502,"ARG_OF_PERICENTER":99.8168,"MEAN_ANOMALY":260.4102,"EPHEMERIS_TYPE":0,"CLASSIFICATION_TYPE":"U","NORAD_CAT_ID":57197,"ELEMENT_SET_NO":999,"REV_AT_EPOCH":14840,"BSTAR":0.00072291,"MEAN_MOTION_DOT":0.00023097,"MEAN_MOTION_DDOT":0},{"OBJECT_NAME":"SITRO-AIS 10 (BURDAEV)","OBJECT_ID":"2023-091AK","EPOCH":"2026-03-02T20:10:40.979712","MEAN_MOTION":15.34390345,"ECCENTRICITY":0.0008536,"INCLINATION":97.5204,"RA_OF_ASC_NODE":130.117,"ARG_OF_PERICENTER":96.2091,"MEAN_ANOMALY":264.0124,"EPHEMERIS_TYPE":0,"CLASSIFICATION_TYPE":"U","NORAD_CAT_ID":57199,"ELEMENT_SET_NO":999,"REV_AT_EPOCH":14843,"BSTAR":0.00070685,"MEAN_MOTION_DOT":0.0002353,"MEAN_MOTION_DDOT":0},{"OBJECT_NAME":"SITRO-AIS 9 (SHCHUKIN)","OBJECT_ID":"2023-091AM","EPOCH":"2026-03-02T20:05:44.879136","MEAN_MOTION":15.34026071,"ECCENTRICITY":0.0008701,"INCLINATION":97.5204,"RA_OF_ASC_NODE":129.917,"ARG_OF_PERICENTER":96.0016,"MEAN_ANOMALY":264.2218,"EPHEMERIS_TYPE":0,"CLASSIFICATION_TYPE":"U","NORAD_CAT_ID":57201,"ELEMENT_SET_NO":999,"REV_AT_EPOCH":14842,"BSTAR":0.0007142,"MEAN_MOTION_DOT":0.00023504,"MEAN_MOTION_DDOT":0},{"OBJECT_NAME":"UTMN 2 (RS27S)","OBJECT_ID":"2023-091AP","EPOCH":"2026-03-02T19:59:27.332736","MEAN_MOTION":15.29235227,"ECCENTRICITY":0.0009952,"INCLINATION":97.5218,"RA_OF_ASC_NODE":127.7375,"ARG_OF_PERICENTER":97.6347,"MEAN_ANOMALY":262.6024,"EPHEMERIS_TYPE":0,"CLASSIFICATION_TYPE":"U","NORAD_CAT_ID":57203,"ELEMENT_SET_NO":999,"REV_AT_EPOCH":14827,"BSTAR":0.00057152,"MEAN_MOTION_DOT":0.00016175,"MEAN_MOTION_DDOT":0},{"OBJECT_NAME":"SITRO-AIS 12 (SMIRENNIY)","OBJECT_ID":"2023-091AQ","EPOCH":"2026-03-02T20:19:16.989024","MEAN_MOTION":15.34273957,"ECCENTRICITY":0.000841,"INCLINATION":97.5214,"RA_OF_ASC_NODE":130.3318,"ARG_OF_PERICENTER":91.59,"MEAN_ANOMALY":268.6306,"EPHEMERIS_TYPE":0,"CLASSIFICATION_TYPE":"U","NORAD_CAT_ID":57204,"ELEMENT_SET_NO":999,"REV_AT_EPOCH":14844,"BSTAR":0.00072544,"MEAN_MOTION_DOT":0.00024063,"MEAN_MOTION_DDOT":0},{"OBJECT_NAME":"SITRO-AIS 11 (SHEFFER)","OBJECT_ID":"2023-091AU","EPOCH":"2026-03-02T21:16:44.256576","MEAN_MOTION":15.3460695,"ECCENTRICITY":0.0008241,"INCLINATION":97.5212,"RA_OF_ASC_NODE":130.5594,"ARG_OF_PERICENTER":90.9558,"MEAN_ANOMALY":269.2629,"EPHEMERIS_TYPE":0,"CLASSIFICATION_TYPE":"U","NORAD_CAT_ID":57208,"ELEMENT_SET_NO":999,"REV_AT_EPOCH":14846,"BSTAR":0.00073491,"MEAN_MOTION_DOT":0.00024638,"MEAN_MOTION_DDOT":0},{"OBJECT_NAME":"H2SAT (HEINRICH HERTZ)","OBJECT_ID":"2023-093A","EPOCH":"2026-03-02T17:32:29.292576","MEAN_MOTION":1.00270291,"ECCENTRICITY":0.0001062,"INCLINATION":0.0527,"RA_OF_ASC_NODE":291.7342,"ARG_OF_PERICENTER":185.1256,"MEAN_ANOMALY":307.4559,"EPHEMERIS_TYPE":0,"CLASSIFICATION_TYPE":"U","NORAD_CAT_ID":57213,"ELEMENT_SET_NO":999,"REV_AT_EPOCH":984,"BSTAR":0,"MEAN_MOTION_DOT":-1.5e-7,"MEAN_MOTION_DDOT":0},{"OBJECT_NAME":"KUZGTU 1 (RS47S)","OBJECT_ID":"2023-091AV","EPOCH":"2026-03-02T20:34:03.192960","MEAN_MOTION":15.27236904,"ECCENTRICITY":0.0012953,"INCLINATION":97.5201,"RA_OF_ASC_NODE":125.3909,"ARG_OF_PERICENTER":111.3688,"MEAN_ANOMALY":248.8935,"EPHEMERIS_TYPE":0,"CLASSIFICATION_TYPE":"U","NORAD_CAT_ID":57217,"ELEMENT_SET_NO":999,"REV_AT_EPOCH":14813,"BSTAR":0.00059685,"MEAN_MOTION_DOT":0.00015911,"MEAN_MOTION_DDOT":0},{"OBJECT_NAME":"QIANKUN-1","OBJECT_ID":"2023-103B","EPOCH":"2026-03-02T08:39:35.571168","MEAN_MOTION":16.07672143,"ECCENTRICITY":0.00249924,"INCLINATION":96.1975,"RA_OF_ASC_NODE":113.3483,"ARG_OF_PERICENTER":174.0337,"MEAN_ANOMALY":186.1251,"EPHEMERIS_TYPE":0,"CLASSIFICATION_TYPE":"U","NORAD_CAT_ID":57422,"ELEMENT_SET_NO":999,"REV_AT_EPOCH":15013,"BSTAR":2.276074e-6,"MEAN_MOTION_DOT":1.372e-5,"MEAN_MOTION_DDOT":1.686021e-6}]
